ONEWEB-0435             
1 51632U 22012L   26197.59254325  .00000431  00000+0  11976-2 0  9997
2 51632  87.8815  30.4159 0001892  98.3702 261.7639 13.10378354213169
ONEWEB-0436             
1 51633U 22012M   26197.44763470  .00000032  00000+0  50221-4 0  9993
2 51633  87.9155   0.0264 0001926 100.0958 260.0391 13.17647778217538
ONEWEB-0438             
1 51634U 22012N   26197.57724799 -.00000419  00000+0 -12354-2 0  9993
2 51634  87.8816  30.4234 0001807  80.2879 279.8453 13.10377136213191
ONEWEB-0439             
1 51635U 22012P   26197.58065549 -.00000093  00000+0 -30282-3 0  9995
2 51635  87.8820  30.4102 0001760  86.3591 273.7738 13.10377414213173
ONEWEB-0442             
1 51636U 22012Q   26197.59192119  .00000071  00000+0  14899-3 0  9991
2 51636  87.9146   0.0282 0001697  74.9348 285.1971 13.17651181217544
ONEWEB-0443             
1 51637U 22012R   26197.45944516  .00000039  00000+0  68228-4 0  9993
2 51637  87.9147   0.0553 0001529  98.5097 261.6208 13.17647791217571
ONEWEB-0444             
1 51638U 22012S   26197.57046006 -.00000768  00000+0 -22365-2 0  9995
2 51638  87.8819  30.4108 0001664  90.8594 269.2724 13.10375032213186
ONEWEB-0445             
1 51639U 22012T   26197.59083347  .00000377  00000+0  10422-2 0  9992
2 51639  87.8825  30.3969 0001942  85.6222 274.5127 13.10379319213196
ONEWEB-0446             
1 51640U 22012U   26197.56875828 -.00000489  00000+0 -14378-2 0  9994
2 51640  87.8816  30.4283 0002149  82.6818 277.4553 13.10373389213170
ONEWEB-0448             
1 51641U 22012V   26197.57385310 -.00000630  00000+0 -18402-2 0  9998
2 51641  87.8815  30.4230 0001801  87.4636 272.6697 13.10377018213143
ONEWEB-0449             
1 51642U 22012W   26197.57894803 -.00000277  00000+0 -82915-3 0  9999
2 51642  87.8823  30.4091 0001841  67.8250 292.3073 13.10376425213155
ONEWEB-0451             
1 51643U 22012X   26197.44425356  .00000075  00000+0  16000-3 0  9995
2 51643  87.9158   0.0255 0001697  89.2580 270.8746 13.17651369217518
ONEWEB-0452             
1 51644U 22012Y   26197.51850912 -.00000018  00000+0 -79511-4 0  9990
2 51644  87.9148   0.0449 0001554  92.5247 267.6062 13.17647432217535
ONEWEB-0456             
1 51646U 22012AA  26197.58743052  .00000146  00000+0  38313-3 0  9999
2 51646  87.8832  30.3964 0001786  91.7632 268.3700 13.10375645213192
ONEWEB-0457             
1 51647U 22012AB  26197.56523144 -.00000871  00000+0 -25304-2 0  9998
2 51647  87.8816  30.4164 0002094  79.3552 280.7811 13.10374300213192
ONEWEB-0458             
1 51648U 22012AC  26197.58659553  .00000169  00000+0  44785-3 0  9998
2 51648  87.8822  30.4005 0001632  86.6668 273.4646 13.10376211213154
