{"fetched_at":"2026-07-17T06:37:51.309Z","source":"https://celestrak.org/NORAD/elements/gp.php?GROUP=oneweb&FORMAT=JSON","constellation":"oneweb","records":[{"OBJECT_NAME":"ONEWEB-0435","OBJECT_ID":"2022-012L","EPOCH":"2026-07-16T14:13:15.736800","CLASSIFICATION_TYPE":"U","MEAN_MOTION":13.10378354,"ECCENTRICITY":0.0001892,"INCLINATION":87.8815,"RA_OF_ASC_NODE":30.4159,"ARG_OF_PERICENTER":98.3702,"MEAN_ANOMALY":261.7639,"EPHEMERIS_TYPE":0,"NORAD_CAT_ID":51632,"ELEMENT_SET_NO":999,"REV_AT_EPOCH":21316,"BSTAR":0.0011976,"MEAN_MOTION_DOT":0.00000431,"MEAN_MOTION_DDOT":0},{"OBJECT_NAME":"ONEWEB-0436","OBJECT_ID":"2022-012M","EPOCH":"2026-07-16T10:44:35.638080","CLASSIFICATION_TYPE":"U","MEAN_MOTION":13.17647778,"ECCENTRICITY":0.0001926,"INCLINATION":87.9155,"RA_OF_ASC_NODE":0.0264,"ARG_OF_PERICENTER":100.0958,"MEAN_ANOMALY":260.0391,"EPHEMERIS_TYPE":0,"NORAD_CAT_ID":51633,"ELEMENT_SET_NO":999,"REV_AT_EPOCH":21753,"BSTAR":0.000050221,"MEAN_MOTION_DOT":3.2e-7,"MEAN_MOTION_DDOT":0},{"OBJECT_NAME":"ONEWEB-0438","OBJECT_ID":"2022-012N","EPOCH":"2026-07-16T13:51:14.226336","CLASSIFICATION_TYPE":"U","MEAN_MOTION":13.10377136,"ECCENTRICITY":0.0001807,"INCLINATION":87.8816,"RA_OF_ASC_NODE":30.4234,"ARG_OF_PERICENTER":80.2879,"MEAN_ANOMALY":279.8453,"EPHEMERIS_TYPE":0,"NORAD_CAT_ID":51634,"ELEMENT_SET_NO":999,"REV_AT_EPOCH":21319,"BSTAR":-0.0012354,"MEAN_MOTION_DOT":-0.00000419,"MEAN_MOTION_DDOT":0},{"OBJECT_NAME":"ONEWEB-0439","OBJECT_ID":"2022-012P","EPOCH":"2026-07-16T13:56:08.634336","CLASSIFICATION_TYPE":"U","MEAN_MOTION":13.10377414,"ECCENTRICITY":0.000176,"INCLINATION":87.882,"RA_OF_ASC_NODE":30.4102,"ARG_OF_PERICENTER":86.3591,"MEAN_ANOMALY":273.7738,"EPHEMERIS_TYPE":0,"NORAD_CAT_ID":51635,"ELEMENT_SET_NO":999,"REV_AT_EPOCH":21317,"BSTAR":-0.00030282,"MEAN_MOTION_DOT":-9.3e-7,"MEAN_MOTION_DDOT":0},{"OBJECT_NAME":"ONEWEB-0442","OBJECT_ID":"2022-012Q","EPOCH":"2026-07-16T14:12:21.990816","CLASSIFICATION_TYPE":"U","MEAN_MOTION":13.17651181,"ECCENTRICITY":0.0001697,"INCLINATION":87.9146,"RA_OF_ASC_NODE":0.0282,"ARG_OF_PERICENTER":74.9348,"MEAN_ANOMALY":285.1971,"EPHEMERIS_TYPE":0,"NORAD_CAT_ID":51636,"ELEMENT_SET_NO":999,"REV_AT_EPOCH":21754,"BSTAR":0.00014899,"MEAN_MOTION_DOT":7.1e-7,"MEAN_MOTION_DDOT":0},{"OBJECT_NAME":"ONEWEB-0443","OBJECT_ID":"2022-012R","EPOCH":"2026-07-16T11:01:36.061824","CLASSIFICATION_TYPE":"U","MEAN_MOTION":13.17647791,"ECCENTRICITY":0.0001529,"INCLINATION":87.9147,"RA_OF_ASC_NODE":0.0553,"ARG_OF_PERICENTER":98.5097,"MEAN_ANOMALY":261.6208,"EPHEMERIS_TYPE":0,"NORAD_CAT_ID":51637,"ELEMENT_SET_NO":999,"REV_AT_EPOCH":21757,"BSTAR":0.000068228,"MEAN_MOTION_DOT":3.9e-7,"MEAN_MOTION_DDOT":0},{"OBJECT_NAME":"ONEWEB-0444","OBJECT_ID":"2022-012S","EPOCH":"2026-07-16T13:41:27.749184","CLASSIFICATION_TYPE":"U","MEAN_MOTION":13.10375032,"ECCENTRICITY":0.0001664,"INCLINATION":87.8819,"RA_OF_ASC_NODE":30.4108,"ARG_OF_PERICENTER":90.8594,"MEAN_ANOMALY":269.2724,"EPHEMERIS_TYPE":0,"NORAD_CAT_ID":51638,"ELEMENT_SET_NO":999,"REV_AT_EPOCH":21318,"BSTAR":-0.0022365,"MEAN_MOTION_DOT":-0.00000768,"MEAN_MOTION_DDOT":0},{"OBJECT_NAME":"ONEWEB-0445","OBJECT_ID":"2022-012T","EPOCH":"2026-07-16T14:10:48.011808","CLASSIFICATION_TYPE":"U","MEAN_MOTION":13.10379319,"ECCENTRICITY":0.0001942,"INCLINATION":87.8825,"RA_OF_ASC_NODE":30.3969,"ARG_OF_PERICENTER":85.6222,"MEAN_ANOMALY":274.5127,"EPHEMERIS_TYPE":0,"NORAD_CAT_ID":51639,"ELEMENT_SET_NO":999,"REV_AT_EPOCH":21319,"BSTAR":0.0010422,"MEAN_MOTION_DOT":0.00000377,"MEAN_MOTION_DDOT":0},{"OBJECT_NAME":"ONEWEB-0446","OBJECT_ID":"2022-012U","EPOCH":"2026-07-16T13:39:00.715392","CLASSIFICATION_TYPE":"U","MEAN_MOTION":13.10373389,"ECCENTRICITY":0.0002149,"INCLINATION":87.8816,"RA_OF_ASC_NODE":30.4283,"ARG_OF_PERICENTER":82.6818,"MEAN_ANOMALY":277.4553,"EPHEMERIS_TYPE":0,"NORAD_CAT_ID":51640,"ELEMENT_SET_NO":999,"REV_AT_EPOCH":21317,"BSTAR":-0.0014378,"MEAN_MOTION_DOT":-0.00000489,"MEAN_MOTION_DDOT":0},{"OBJECT_NAME":"ONEWEB-0448","OBJECT_ID":"2022-012V","EPOCH":"2026-07-16T13:46:20.907840","CLASSIFICATION_TYPE":"U","MEAN_MOTION":13.10377018,"ECCENTRICITY":0.0001801,"INCLINATION":87.8815,"RA_OF_ASC_NODE":30.423,"ARG_OF_PERICENTER":87.4636,"MEAN_ANOMALY":272.6697,"EPHEMERIS_TYPE":0,"NORAD_CAT_ID":51641,"ELEMENT_SET_NO":999,"REV_AT_EPOCH":21314,"BSTAR":-0.0018402,"MEAN_MOTION_DOT":-0.0000063,"MEAN_MOTION_DDOT":0},{"OBJECT_NAME":"ONEWEB-0449","OBJECT_ID":"2022-012W","EPOCH":"2026-07-16T13:53:41.109792","CLASSIFICATION_TYPE":"U","MEAN_MOTION":13.10376425,"ECCENTRICITY":0.0001841,"INCLINATION":87.8823,"RA_OF_ASC_NODE":30.4091,"ARG_OF_PERICENTER":67.825,"MEAN_ANOMALY":292.3073,"EPHEMERIS_TYPE":0,"NORAD_CAT_ID":51642,"ELEMENT_SET_NO":999,"REV_AT_EPOCH":21315,"BSTAR":-0.00082915,"MEAN_MOTION_DOT":-0.00000277,"MEAN_MOTION_DDOT":0},{"OBJECT_NAME":"ONEWEB-0451","OBJECT_ID":"2022-012X","EPOCH":"2026-07-16T10:39:43.507584","CLASSIFICATION_TYPE":"U","MEAN_MOTION":13.17651369,"ECCENTRICITY":0.0001697,"INCLINATION":87.9158,"RA_OF_ASC_NODE":0.0255,"ARG_OF_PERICENTER":89.258,"MEAN_ANOMALY":270.8746,"EPHEMERIS_TYPE":0,"NORAD_CAT_ID":51643,"ELEMENT_SET_NO":999,"REV_AT_EPOCH":21751,"BSTAR":0.00016,"MEAN_MOTION_DOT":7.5e-7,"MEAN_MOTION_DDOT":0},{"OBJECT_NAME":"ONEWEB-0452","OBJECT_ID":"2022-012Y","EPOCH":"2026-07-16T12:26:39.187968","CLASSIFICATION_TYPE":"U","MEAN_MOTION":13.17647432,"ECCENTRICITY":0.0001554,"INCLINATION":87.9148,"RA_OF_ASC_NODE":0.0449,"ARG_OF_PERICENTER":92.5247,"MEAN_ANOMALY":267.6062,"EPHEMERIS_TYPE":0,"NORAD_CAT_ID":51644,"ELEMENT_SET_NO":999,"REV_AT_EPOCH":21753,"BSTAR":-0.000079511,"MEAN_MOTION_DOT":-1.8e-7,"MEAN_MOTION_DDOT":0},{"OBJECT_NAME":"ONEWEB-0456","OBJECT_ID":"2022-012AA","EPOCH":"2026-07-16T14:05:53.996928","CLASSIFICATION_TYPE":"U","MEAN_MOTION":13.10375645,"ECCENTRICITY":0.0001786,"INCLINATION":87.8832,"RA_OF_ASC_NODE":30.3964,"ARG_OF_PERICENTER":91.7632,"MEAN_ANOMALY":268.37,"EPHEMERIS_TYPE":0,"NORAD_CAT_ID":51646,"ELEMENT_SET_NO":999,"REV_AT_EPOCH":21319,"BSTAR":0.00038313,"MEAN_MOTION_DOT":0.00000146,"MEAN_MOTION_DDOT":0},{"OBJECT_NAME":"ONEWEB-0457","OBJECT_ID":"2022-012AB","EPOCH":"2026-07-16T13:33:55.996416","CLASSIFICATION_TYPE":"U","MEAN_MOTION":13.103743,"ECCENTRICITY":0.0002094,"INCLINATION":87.8816,"RA_OF_ASC_NODE":30.4164,"ARG_OF_PERICENTER":79.3552,"MEAN_ANOMALY":280.7811,"EPHEMERIS_TYPE":0,"NORAD_CAT_ID":51647,"ELEMENT_SET_NO":999,"REV_AT_EPOCH":21319,"BSTAR":-0.0025304,"MEAN_MOTION_DOT":-0.00000871,"MEAN_MOTION_DDOT":0},{"OBJECT_NAME":"ONEWEB-0458","OBJECT_ID":"2022-012AC","EPOCH":"2026-07-16T14:04:41.853792","CLASSIFICATION_TYPE":"U","MEAN_MOTION":13.10376211,"ECCENTRICITY":0.0001632,"INCLINATION":87.8822,"RA_OF_ASC_NODE":30.4005,"ARG_OF_PERICENTER":86.6668,"MEAN_ANOMALY":273.4646,"EPHEMERIS_TYPE":0,"NORAD_CAT_ID":51648,"ELEMENT_SET_NO":999,"REV_AT_EPOCH":21315,"BSTAR":0.00044785,"MEAN_MOTION_DOT":0.00000169,"MEAN_MOTION_DDOT":0}]}
